{"type": "FeatureCollection", "features": [ {"type": "Feature", "properties": {"norad_id": 66547, "name": "SHIJIAN-30C", "group": "last-30-days", "lat": -9.136464872326096, "lon": -151.29151047913734, "alt_km": 525.8501268335258, "timestamp": "2025-12-02T08:59:31.504270+00:00", "meta": {"OBJECT_NAME": "SHIJIAN-30C", "OBJECT_ID": "2025-266C", "EPOCH": "2025-12-02T03:24:04.264128", "MEAN_MOTION": 15.15393977, "ECCENTRICITY": 0.0011316, "INCLINATION": 51.7987, "RA_OF_ASC_NODE": 22.5238, "ARG_OF_PERICENTER": 313.6645, "MEAN_ANOMALY": 46.3392, "EPHEMERIS_TYPE": 0, "CLASSIFICATION_TYPE": "U", "NORAD_CAT_ID": 66547, "ELEMENT_SET_NO": 999, "REV_AT_EPOCH": 197, "BSTAR": 0.00075633, "MEAN_MOTION_DOT": 0.00014199, "MEAN_MOTION_DDOT": 0}, "tle": {"line1": "1 66547U 25266C   25336.14171602  .00014199  00000+0  75633-3 0  9990", "line2": "2 66547  51.7987  22.5238 0011316 313.6645  46.3392 15.15393977  1973"}}, "geometry": {"type": "Point", "coordinates": [-151.29151047913734, -9.136464872326096]}}, {"type": "Feature", "properties": {"norad_id": 66548, "name": "CZ-2C R/B", "group": "last-30-days", "lat": 19.693048816151283, "lon": -175.56836392856363, "alt_km": 418.5285000032245, "timestamp": "2025-12-02T08:59:31.504285+00:00", "meta": {"OBJECT_NAME": "CZ-2C R/B", "OBJECT_ID": "2025-266D", "EPOCH": "2025-12-02T02:03:07.009056", "MEAN_MOTION": 15.29807959, "ECCENTRICITY": 0.0084884, "INCLINATION": 52.0549, "RA_OF_ASC_NODE": 22.0262, "ARG_OF_PERICENTER": 136.7997, "MEAN_ANOMALY": 223.9689, "EPHEMERIS_TYPE": 0, "CLASSIFICATION_TYPE": "U", "NORAD_CAT_ID": 66548, "ELEMENT_SET_NO": 999, "REV_AT_EPOCH": 198, "BSTAR": 0.0004401, "MEAN_MOTION_DOT": 0.00014009, "MEAN_MOTION_DDOT": 0}, "tle": {"line1": "1 66548U 25266D   25336.08549779  .00014009  00000+0  44010-3 0  9993", "line2": "2 66548  52.0549  22.0262 0084884 136.7997 223.9689 15.29807959  1986"}}, "geometry": {"type": "Point", "coordinates": [-175.56836392856363, 19.693048816151283]}}, {"type": "Feature", "properties": {"norad_id": 66549, "name": "SHIJIAN-28", "group": "last-30-days", "lat": -7.066666073886719, "lon": -113.956612096752, "alt_km": 24484.453356922295, "timestamp": "2025-12-02T08:59:31.504297+00:00", "meta": {"OBJECT_NAME": "SHIJIAN-28", "OBJECT_ID": "2025-277A", "EPOCH": "2025-11-30T18:06:43.124256", "MEAN_MOTION": 2.28019775, "ECCENTRICITY": 0.7300519, "INCLINATION": 14.4344, "RA_OF_ASC_NODE": 275.4056, "ARG_OF_PERICENTER": 179.5026, "MEAN_ANOMALY": 182.358, "EPHEMERIS_TYPE": 0, "CLASSIFICATION_TYPE": "U", "NORAD_CAT_ID": 66549, "ELEMENT_SET_NO": 999, "REV_AT_EPOCH": 4, "BSTAR": 0.00062085, "MEAN_MOTION_DOT": 6.315e-05, "MEAN_MOTION_DDOT": 0}, "tle": {"line1": "1 66549U 25277A   25334.75466579  .00006315  00000+0  62085-3 0  9997", "line2": "2 66549  14.4344 275.4056 7300519 179.5026 182.3580  2.28019775    48"}}, "geometry": {"type": "Point", "coordinates": [-113.956612096752, -7.066666073886719]}}, {"type": "Feature", "properties": {"norad_id": 66550, "name": "CZ-7A R/B", "group": "last-30-days", "lat": -1.7319823466125994, "lon": -91.89334635618862, "alt_km": 33554.021262410795, "timestamp": "2025-12-02T08:59:31.504310+00:00", "meta": {"OBJECT_NAME": "CZ-7A R/B", "OBJECT_ID": "2025-277B", "EPOCH": "2025-12-01T03:57:29.558880", "MEAN_MOTION": 2.40161271, "ECCENTRICITY": 0.7236288, "INCLINATION": 14.4278, "RA_OF_ASC_NODE": 275.378, "ARG_OF_PERICENTER": 178.5774, "MEAN_ANOMALY": 186.2906, "EPHEMERIS_TYPE": 0, "CLASSIFICATION_TYPE": "U", "NORAD_CAT_ID": 66550, "ELEMENT_SET_NO": 999, "REV_AT_EPOCH": 5, "BSTAR": 4.4604e-05, "MEAN_MOTION_DOT": 0.00016399, "MEAN_MOTION_DDOT": -7.1945e-08}, "tle": {"line1": "1 66550U 25277B   25335.16492545  .00016399 -71945-7  44604-4 0  9993", "line2": "2 66550  14.4278 275.3780 7236288 178.5774 186.2906  2.40161271    58"}}, "geometry": {"type": "Point", "coordinates": [-91.89334635618862, -1.7319823466125994]}}, {"type": "Feature", "properties": {"norad_id": 66554, "name": "GLOBAL-33", "group": "last-30-days", "lat": 41.75835425499357, "lon": -160.61456872539335, "alt_km": 466.38577147097203, "timestamp": "2025-12-02T08:59:31.504321+00:00", "meta": {"OBJECT_NAME": "GLOBAL-33", "OBJECT_ID": "2025-267A", "EPOCH": "2025-12-01T13:50:24.523008", "MEAN_MOTION": 15.31219725, "ECCENTRICITY": 0.00057288, "INCLINATION": 42.0185, "RA_OF_ASC_NODE": 121.4212, "ARG_OF_PERICENTER": 334.0325, "MEAN_ANOMALY": 26.0224, "EPHEMERIS_TYPE": 0, "CLASSIFICATION_TYPE": "U", "NORAD_CAT_ID": 66554, "ELEMENT_SET_NO": 999, "REV_AT_EPOCH": 169, "BSTAR": 0.00042504888, "MEAN_MOTION_DOT": 0.00012871, "MEAN_MOTION_DDOT": 0}, "tle": {"line1": "1 66554U 25267A   25335.57667272  .00012871  00000+0  42505-3 0  9995", "line2": "2 66554  42.0185 121.4212 0005728 334.0325  26.0224 15.31219725  1691"}}, "geometry": {"type": "Point", "coordinates": [-160.61456872539335, 41.75835425499357]}}, {"type": "Feature", "properties": {"norad_id": 66555, "name": "ELECTRON KICK STAGE R/B", "group": "last-30-days", "lat": 37.98550876720379, "lon": -123.40553783942313, "alt_km": 467.04672649996155, "timestamp": "2025-12-02T08:59:31.504333+00:00", "meta": {"OBJECT_NAME": "ELECTRON KICK STAGE R/B", "OBJECT_ID": "2025-267B", "EPOCH": "2025-12-01T10:35:48.221376", "MEAN_MOTION": 15.32009577, "ECCENTRICITY": 0.0007494, "INCLINATION": 42.0166, "RA_OF_ASC_NODE": 122.1405, "ARG_OF_PERICENTER": 332.9044, "MEAN_ANOMALY": 27.1401, "EPHEMERIS_TYPE": 0, "CLASSIFICATION_TYPE": "U", "NORAD_CAT_ID": 66555, "ELEMENT_SET_NO": 999, "REV_AT_EPOCH": 167, "BSTAR": 0.00092660656, "MEAN_MOTION_DOT": 0.00029144, "MEAN_MOTION_DDOT": 0}, "tle": {"line1": "1 66555U 25267B   25335.44153034  .00029144  00000+0  92661-3 0  9997", "line2": "2 66555  42.0166 122.1405 0007494 332.9044  27.1401 15.32009577  1670"}}, "geometry": {"type": "Point", "coordinates": [-123.40553783942313, 37.98550876720379]}}, {"type": "Feature", "properties": {"norad_id": 66557, "name": "STARLINK-35699", "group": "last-30-days", "lat": 30.82228147269892, "lon": -37.1208183925243, "alt_km": 332.3576521856103, "timestamp": "2025-12-02T08:59:31.504345+00:00", "meta": {"OBJECT_NAME": "STARLINK-35699", "OBJECT_ID": "2025-268A", "EPOCH": "2025-12-02T04:00:03.998880", "MEAN_MOTION": 15.78645453, "ECCENTRICITY": 0.0001793, "INCLINATION": 42.9968, "RA_OF_ASC_NODE": 183.9664, "ARG_OF_PERICENTER": 275.5304, "MEAN_ANOMALY": 112.6627, "EPHEMERIS_TYPE": 0, "CLASSIFICATION_TYPE": "U", "NORAD_CAT_ID": 66557, "ELEMENT_SET_NO": 999, "REV_AT_EPOCH": 297, "BSTAR": -0.009546, "MEAN_MOTION_DOT": -0.01514515, "MEAN_MOTION_DDOT": 0}, "tle": {"line1": "1 66557U 25268A   25336.16671295 -.01514515  00000+0 -95460-2 0  9997", "line2": "2 66557  42.9968 183.9664 0001793 275.5304 112.6627 15.78645453  2973"}}, "geometry": {"type": "Point", "coordinates": [-37.1208183925243, 30.82228147269892]}}, {"type": "Feature", "properties": {"norad_id": 66558, "name": "STARLINK-35695", "group": "last-30-days", "lat": 29.775114617626194, "lon": -35.18966337009733, "alt_km": 332.55187523446057, "timestamp": "2025-12-02T08:59:31.504355+00:00", "meta": {"OBJECT_NAME": "STARLINK-35695", "OBJECT_ID": "2025-268B", "EPOCH": "2025-12-02T04:00:03.998880", "MEAN_MOTION": 15.78635598, "ECCENTRICITY": 0.0001824, "INCLINATION": 42.9967, "RA_OF_ASC_NODE": 183.9616, "ARG_OF_PERICENTER": 275.5643, "MEAN_ANOMALY": 114.6078, "EPHEMERIS_TYPE": 0, "CLASSIFICATION_TYPE": "U", "NORAD_CAT_ID": 66558, "ELEMENT_SET_NO": 999, "REV_AT_EPOCH": 297, "BSTAR": -0.0095723, "MEAN_MOTION_DOT": -0.01517591, "MEAN_MOTION_DDOT": 0}, "tle": {"line1": "1 66558U 25268B   25336.16671295 -.01517591  00000+0 -95723-2 0  9997", "line2": "2 66558  42.9967 183.9616 0001824 275.5643 114.6078 15.78635598  2972"}}, "geometry": {"type": "Point", "coordinates": [-35.18966337009733, 29.775114617626194]}}, {"type": "Feature", "properties": {"norad_id": 66559, "name": "STARLINK-35419", "group": "last-30-days", "lat": 28.654658776100764, "lon": -33.22041517600746, "alt_km": 332.8396947299043, "timestamp": "2025-12-02T08:59:31.504365+00:00", "meta": {"OBJECT_NAME": "STARLINK-35419", "OBJECT_ID": "2025-268C", "EPOCH": "2025-12-02T04:00:03.998880", "MEAN_MOTION": 15.78605643, "ECCENTRICITY": 0.0001917, "INCLINATION": 42.9969, "RA_OF_ASC_NODE": 183.9563, "ARG_OF_PERICENTER": 274.6409, "MEAN_ANOMALY": 117.6105, "EPHEMERIS_TYPE": 0, "CLASSIFICATION_TYPE": "U", "NORAD_CAT_ID": 66559, "ELEMENT_SET_NO": 999, "REV_AT_EPOCH": 297, "BSTAR": -0.0096551, "MEAN_MOTION_DOT": -0.01527341, "MEAN_MOTION_DDOT": 0}, "tle": {"line1": "1 66559U 25268C   25336.16671295 -.01527341  00000+0 -96551-2 0  9992", "line2": "2 66559  42.9969 183.9563 0001917 274.6409 117.6105 15.78605643  2971"}}, "geometry": {"type": "Point", "coordinates": [-33.22041517600746, 28.654658776100764]}}, {"type": "Feature", "properties": {"norad_id": 66560, "name": "STARLINK-35411", "group": "last-30-days", "lat": 27.54091111781645, "lon": -31.350462468688573, "alt_km": 333.00476577189784, "timestamp": "2025-12-02T08:59:31.504377+00:00", "meta": {"OBJECT_NAME": "STARLINK-35411", "OBJECT_ID": "2025-268D", "EPOCH": "2025-12-02T04:00:03.998880", "MEAN_MOTION": 15.78594445, "ECCENTRICITY": 0.0001841, "INCLINATION": 42.9971, "RA_OF_ASC_NODE": 183.9512, "ARG_OF_PERICENTER": 275.3133, "MEAN_ANOMALY": 118.9398, "EPHEMERIS_TYPE": 0, "CLASSIFICATION_TYPE": "U", "NORAD_CAT_ID": 66560, "ELEMENT_SET_NO": 999, "REV_AT_EPOCH": 297, "BSTAR": -0.0097161, "MEAN_MOTION_DOT": -0.01535043, "MEAN_MOTION_DDOT": 0}, "tle": {"line1": "1 66560U 25268D   25336.16671295 -.01535043  00000+0 -97161-2 0  9990", "line2": "2 66560  42.9971 183.9512 0001841 275.3133 118.9398 15.78594445  2973"}}, "geometry": {"type": "Point", "coordinates": [-31.350462468688573, 27.54091111781645]}}]}